[{"OBJECT_NAME":"STARLINK-3916","OBJECT_ID":"2022-049AT","EPOCH":"2026-03-09T08:33:47.717856","MEAN_MOTION":15.08843925,"ECCENTRICITY":0.00014719,"INCLINATION":53.2177,"RA_OF_ASC_NODE":50.6114,"ARG_OF_PERICENTER":90.4428,"MEAN_ANOMALY":269.6733,"EPHEMERIS_TYPE":0,"CLASSIFICATION_TYPE":"U","NORAD_CAT_ID":52492,"ELEMENT_SET_NO":999,"REV_AT_EPOCH":21234,"BSTAR":4.339586e-6,"MEAN_MOTION_DOT":-2.19e-6,"MEAN_MOTION_DDOT":0},{"OBJECT_NAME":"DELTA 1 DEB","OBJECT_ID":"1977-065FR","EPOCH":"2026-03-09T05:35:40.773120","MEAN_MOTION":14.28278383,"ECCENTRICITY":0.04283398,"INCLINATION":29.171,"RA_OF_ASC_NODE":124.9449,"ARG_OF_PERICENTER":345.5547,"MEAN_ANOMALY":13.3121,"EPHEMERIS_TYPE":0,"CLASSIFICATION_TYPE":"U","NORAD_CAT_ID":14563,"ELEMENT_SET_NO":999,"REV_AT_EPOCH":77321,"BSTAR":0.00069118511,"MEAN_MOTION_DOT":4.927e-5,"MEAN_MOTION_DDOT":0}]
